{
  "type": "FeatureCollection",
  "features": [
    {
      "type": "Feature",
      "properties": {
        "norad_id": 66575,
        "name": "STARLINK-35810",
        "group": "last-30-days",
        "lat": -4.885865291647853,
        "lon": -83.82030877239684,
        "alt_km": 415.4558940607167,
        "timestamp": "2025-12-17T21:39:44.490593+00:00",
        "meta_object_name": "STARLINK-35810",
        "meta_object_id": "2025-268U",
        "meta_epoch": "2025-12-17T00:00:02.999808",
        "meta_mean_motion": 15.50546189,
        "meta_eccentricity": 0.0001582,
        "meta_inclination": 43.0008,
        "meta_ra_of_asc_node": 96.1968,
        "meta_arg_of_pericenter": 270.7248,
        "meta_mean_anomaly": 272.2364,
        "meta_ephemeris_type": 0,
        "meta_classification_type": "U",
        "meta_norad_cat_id": 66575,
        "meta_element_set_no": 999,
        "meta_rev_at_epoch": 535,
        "meta_bstar": 0.00017629698,
        "meta_mean_motion_dot": 0.00010002,
        "meta_mean_motion_ddot": 0,
        "tle_line1": "1 66575U 25268U   25351.00003472  .00010002  00000+0  17630-3 0  9996",
        "tle_line2": "2 66575  43.0008  96.1968 0001582 270.7248 272.2364 15.50546189  5354"
      },
      "geometry": {
        "type": "Point",
        "coordinates": [
          -83.82030877239684,
          -4.885865291647853
        ]
      }
    },
    {
      "type": "Feature",
      "properties": {
        "norad_id": 66576,
        "name": "STARLINK-35814",
        "group": "last-30-days",
        "lat": -6.310695488979048,
        "lon": -82.2715795392837,
        "alt_km": 415.19301432449356,
        "timestamp": "2025-12-17T21:39:44.490602+00:00",
        "meta_object_name": "STARLINK-35814",
        "meta_object_id": "2025-268V",
        "meta_epoch": "2025-12-17T08:29:00.092256",
        "meta_mean_motion": 15.50658802,
        "meta_eccentricity": 0.00024121,
        "meta_inclination": 43.0028,
        "meta_ra_of_asc_node": 94.1264,
        "meta_arg_of_pericenter": 276.8256,
        "meta_mean_anomaly": 83.233,
        "meta_ephemeris_type": 0,
        "meta_classification_type": "U",
        "meta_norad_cat_id": 66576,
        "meta_element_set_no": 999,
        "meta_rev_at_epoch": 534,
        "meta_bstar": 0.001057449,
        "meta_mean_motion_dot": 0.0006237,
        "meta_mean_motion_ddot": 0,
        "tle_line1": "1 66576U 25268V   25351.35347329  .00062370  00000+0  10574-2 0  9991",
        "tle_line2": "2 66576  43.0028  94.1264 0002412 276.8256  83.2330 15.50658802  5341"
      },
      "geometry": {
        "type": "Point",
        "coordinates": [
          -82.2715795392837,
          -6.310695488979048
        ]
      }
    },
    {
      "type": "Feature",
      "properties": {
        "norad_id": 66577,
        "name": "STARLINK-35815",
        "group": "last-30-days",
        "lat": -7.599558901838764,
        "lon": -80.86084862349001,
        "alt_km": 415.28345680813345,
        "timestamp": "2025-12-17T21:39:44.490611+00:00",
        "meta_object_name": "STARLINK-35815",
        "meta_object_id": "2025-268W",
        "meta_epoch": "2025-12-17T06:55:45.230016",
        "meta_mean_motion": 15.50614762,
        "meta_eccentricity": 5.558e-05,
        "meta_inclination": 42.9969,
        "meta_ra_of_asc_node": 94.4986,
        "meta_arg_of_pericenter": 117.6284,
        "meta_mean_anomaly": 242.4632,
        "meta_ephemeris_type": 0,
        "meta_classification_type": "U",
        "meta_norad_cat_id": 66577,
        "meta_element_set_no": 999,
        "meta_rev_at_epoch": 533,
        "meta_bstar": 0.0010581413,
        "meta_mean_motion_dot": 0.00062309,
        "meta_mean_motion_ddot": 0,
        "tle_line1": "1 66577U 25268W   25351.28871794  .00062309  00000+0  10581-2 0  9992",
        "tle_line2": "2 66577  42.9969  94.4986 0000555 117.6284 242.4632 15.50614762  5337"
      },
      "geometry": {
        "type": "Point",
        "coordinates": [
          -80.86084862349001,
          -7.599558901838764
        ]
      }
    },
    {
      "type": "Feature",
      "properties": {
        "norad_id": 66578,
        "name": "STARLINK-35743",
        "group": "last-30-days",
        "lat": -8.99161992139117,
        "lon": -79.31956061539978,
        "alt_km": 415.4723826031641,
        "timestamp": "2025-12-17T21:39:44.490620+00:00",
        "meta_object_name": "STARLINK-35743",
        "meta_object_id": "2025-268X",
        "meta_epoch": "2025-12-17T06:55:14.457792",
        "meta_mean_motion": 15.50648449,
        "meta_eccentricity": 3.513e-05,
        "meta_inclination": 42.9978,
        "meta_ra_of_asc_node": 94.4975,
        "meta_arg_of_pericenter": 293.5476,
        "meta_mean_anomaly": 66.5347,
        "meta_ephemeris_type": 0,
        "meta_classification_type": "U",
        "meta_norad_cat_id": 66578,
        "meta_element_set_no": 999,
        "meta_rev_at_epoch": 533,
        "meta_bstar": 0.0013255092,
        "meta_mean_motion_dot": 0.00078396,
        "meta_mean_motion_ddot": 0,
        "tle_line1": "1 66578U 25268X   25351.28836178  .00078396  00000+0  13255-2 0  9994",
        "tle_line2": "2 66578  42.9978  94.4975 0000351 293.5476  66.5347 15.50648449  5334"
      },
      "geometry": {
        "type": "Point",
        "coordinates": [
          -79.31956061539978,
          -8.99161992139117
        ]
      }
    },
    {
      "type": "Feature",
      "properties": {
        "norad_id": 66579,
        "name": "STARLINK-35868",
        "group": "last-30-days",
        "lat": -10.131280100407826,
        "lon": -78.04399166381606,
        "alt_km": 416.8469788780967,
        "timestamp": "2025-12-17T21:39:44.490629+00:00",
        "meta_object_name": "STARLINK-35868",
        "meta_object_id": "2025-268Y",
        "meta_epoch": "2025-12-17T14:38:32.536320",
        "meta_mean_motion": 15.50644886,
        "meta_eccentricity": 0.00021563,
        "meta_inclination": 43.002,
        "meta_ra_of_asc_node": 92.6128,
        "meta_arg_of_pericenter": 335.1769,
        "meta_mean_anomaly": 24.8987,
        "meta_ephemeris_type": 0,
        "meta_classification_type": "U",
        "meta_norad_cat_id": 66579,
        "meta_element_set_no": 999,
        "meta_rev_at_epoch": 538,
        "meta_bstar": 0.0013318962,
        "meta_mean_motion_dot": 0.00078772,
        "meta_mean_motion_ddot": 0,
        "tle_line1": "1 66579U 25268Y   25351.61009880  .00078772  00000+0  13319-2 0  9993",
        "tle_line2": "2 66579  43.0020  92.6128 0002156 335.1769  24.8987 15.50644886  5381"
      },
      "geometry": {
        "type": "Point",
        "coordinates": [
          -78.04399166381606,
          -10.131280100407826
        ]
      }
    },
    {
      "type": "Feature",
      "properties": {
        "norad_id": 66580,
        "name": "STARLINK-35872",
        "group": "last-30-days",
        "lat": -11.44610951223911,
        "lon": -76.55733349937951,
        "alt_km": 415.9043255113429,
        "timestamp": "2025-12-17T21:39:44.490639+00:00",
        "meta_object_name": "STARLINK-35872",
        "meta_object_id": "2025-268Z",
        "meta_epoch": "2025-12-17T08:27:00.606240",
        "meta_mean_motion": 15.50616138,
        "meta_eccentricity": 0.00023547,
        "meta_inclination": 42.9994,
        "meta_ra_of_asc_node": 94.1142,
        "meta_arg_of_pericenter": 284.9963,
        "meta_mean_anomaly": 75.0636,
        "meta_ephemeris_type": 0,
        "meta_classification_type": "U",
        "meta_norad_cat_id": 66580,
        "meta_element_set_no": 999,
        "meta_rev_at_epoch": 534,
        "meta_bstar": 0.0010525788,
        "meta_mean_motion_dot": 0.00061984,
        "meta_mean_motion_ddot": 0,
        "tle_line1": "1 66580U 25268Z   25351.35209035  .00061984  00000+0  10526-2 0  9994",
        "tle_line2": "2 66580  42.9994  94.1142 0002354 284.9963  75.0636 15.50616138  5345"
      },
      "geometry": {
        "type": "Point",
        "coordinates": [
          -76.55733349937951,
          -11.44610951223911
        ]
      }
    },
    {
      "type": "Feature",
      "properties": {
        "norad_id": 66581,
        "name": "STARLINK-35744",
        "group": "last-30-days",
        "lat": -12.687548898453814,
        "lon": -75.13127295788429,
        "alt_km": 416.0273804407425,
        "timestamp": "2025-12-17T21:39:44.490649+00:00",
        "meta_object_name": "STARLINK-35744",
        "meta_object_id": "2025-268AA",
        "meta_epoch": "2025-12-17T14:37:33.144096",
        "meta_mean_motion": 15.50633677,
        "meta_eccentricity": 4.179e-05,
        "meta_inclination": 42.9999,
        "meta_ra_of_asc_node": 92.6034,
        "meta_arg_of_pericenter": 288.5637,
        "meta_mean_anomaly": 71.5177,
        "meta_ephemeris_type": 0,
        "meta_classification_type": "U",
        "meta_norad_cat_id": 66581,
        "meta_element_set_no": 999,
        "meta_rev_at_epoch": 538,
        "meta_bstar": 0.0011462892,
        "meta_mean_motion_dot": 0.0006762,
        "meta_mean_motion_ddot": 0,
        "tle_line1": "1 66581U 25268AA  25351.60941139  .00067620  00000+0  11463-2 0  9995",
        "tle_line2": "2 66581  42.9999  92.6034 0000417 288.5637  71.5177 15.50633677  5382"
      },
      "geometry": {
        "type": "Point",
        "coordinates": [
          -75.13127295788429,
          -12.687548898453814
        ]
      }
    }
  ]
}